{"type": "FeatureCollection", "features": [ {"type": "Feature", "properties": {"norad_id": 36402, "name": "COSMOS 2460 (732)", "group": "gnss", "lat": 42.344568305785984, "lon": -14.757374831865807, "alt_km": 19129.815047368364, "timestamp": "2025-12-13T20:38:51.245584+00:00", "meta": {"OBJECT_NAME": "COSMOS 2460 (732)", "OBJECT_ID": "2010-007C", "EPOCH": "2025-12-09T19:21:37.643616", "MEAN_MOTION": 2.13105924, "ECCENTRICITY": 0.00027883, "INCLINATION": 65.5316, "RA_OF_ASC_NODE": 320.8726, "ARG_OF_PERICENTER": 272.035, "MEAN_ANOMALY": 265.828, "EPHEMERIS_TYPE": 0, "CLASSIFICATION_TYPE": "U", "NORAD_CAT_ID": 36402, "ELEMENT_SET_NO": 999, "REV_AT_EPOCH": 12269, "BSTAR": 0, "MEAN_MOTION_DOT": -4.9e-07, "MEAN_MOTION_DDOT": 0}, "tle": {"line1": "1 36402U 10007C   25343.80668569 -.00000049  00000+0  00000+0 0  9990", "line2": "2 36402  65.5316 320.8726 0002788 272.0350 265.8280  2.13105924122693"}}, "geometry": {"type": "Point", "coordinates": [-14.757374831865807, 42.344568305785984]}}, {"type": "Feature", "properties": {"norad_id": 36585, "name": "GPS BIIF-1  (PRN 25)", "group": "gnss", "lat": -54.23841189495591, "lon": 129.86836927996984, "alt_km": 20486.192136575955, "timestamp": "2025-12-13T20:38:51.245597+00:00", "meta": {"OBJECT_NAME": "GPS BIIF-1  (PRN 25)", "OBJECT_ID": "2010-022A", "EPOCH": "2025-12-13T05:27:57.415104", "MEAN_MOTION": 2.00553278, "ECCENTRICITY": 0.01261295, "INCLINATION": 54.3, "RA_OF_ASC_NODE": 216.0542, "ARG_OF_PERICENTER": 65.0762, "MEAN_ANOMALY": 111.1577, "EPHEMERIS_TYPE": 0, "CLASSIFICATION_TYPE": "U", "NORAD_CAT_ID": 36585, "ELEMENT_SET_NO": 999, "REV_AT_EPOCH": 11386, "BSTAR": 0, "MEAN_MOTION_DOT": 3.5e-07, "MEAN_MOTION_DDOT": 0}, "tle": {"line1": "1 36585U 10022A   25347.22774786  .00000035  00000+0  00000+0 0  9992", "line2": "2 36585  54.3000 216.0542 0126129  65.0762 111.1577  2.00553278113862"}}, "geometry": {"type": "Point", "coordinates": [129.86836927996984, -54.23841189495591]}}, {"type": "Feature", "properties": {"norad_id": 36828, "name": "BEIDOU-2 IGSO-1 (C06)", "group": "gnss", "lat": -19.07338496303372, "lon": 150.20845456057788, "alt_km": 35896.41334234917, "timestamp": "2025-12-13T20:38:51.245609+00:00", "meta": {"OBJECT_NAME": "BEIDOU-2 IGSO-1 (C06)", "OBJECT_ID": "2010-036A", "EPOCH": "2025-12-12T21:56:21.549120", "MEAN_MOTION": 1.00276081, "ECCENTRICITY": 0.00512083, "INCLINATION": 54.2861, "RA_OF_ASC_NODE": 164.6456, "ARG_OF_PERICENTER": 215.8019, "MEAN_ANOMALY": 138.385, "EPHEMERIS_TYPE": 0, "CLASSIFICATION_TYPE": "U", "NORAD_CAT_ID": 36828, "ELEMENT_SET_NO": 999, "REV_AT_EPOCH": 5622, "BSTAR": 0, "MEAN_MOTION_DOT": -3.7e-07, "MEAN_MOTION_DDOT": 0}, "tle": {"line1": "1 36828U 10036A   25346.91413830 -.00000037  00000+0  00000+0 0  9995", "line2": "2 36828  54.2861 164.6456 0051208 215.8019 138.3850  1.00276081 56227"}}, "geometry": {"type": "Point", "coordinates": [150.20845456057788, -19.07338496303372]}}, {"type": "Feature", "properties": {"norad_id": 37210, "name": "BEIDOU-2 G4 (C04)", "group": "gnss", "lat": 2.676861784151134, "lon": -167.50583776509635, "alt_km": 35769.093470069805, "timestamp": "2025-12-13T20:38:51.245622+00:00", "meta": {"OBJECT_NAME": "BEIDOU-2 G4 (C04)", "OBJECT_ID": "2010-057A", "EPOCH": "2025-12-13T07:47:51.710784", "MEAN_MOTION": 1.00271593, "ECCENTRICITY": 0.00108145, "INCLINATION": 3.1864, "RA_OF_ASC_NODE": 69.9376, "ARG_OF_PERICENTER": 191.2025, "MEAN_ANOMALY": 98.158, "EPHEMERIS_TYPE": 0, "CLASSIFICATION_TYPE": "U", "NORAD_CAT_ID": 37210, "ELEMENT_SET_NO": 999, "REV_AT_EPOCH": 5542, "BSTAR": 0, "MEAN_MOTION_DOT": -9.8e-07, "MEAN_MOTION_DDOT": 0}, "tle": {"line1": "1 37210U 10057A   25347.32490406 -.00000098  00000+0  00000+0 0  9991", "line2": "2 37210   3.1864  69.9376 0010814 191.2025  98.1580  1.00271593 55426"}}, "geometry": {"type": "Point", "coordinates": [-167.50583776509635, 2.676861784151134]}}, {"type": "Feature", "properties": {"norad_id": 37256, "name": "BEIDOU-2 IGSO-2 (C07)", "group": "gnss", "lat": -32.35563764716472, "lon": 129.00063157409022, "alt_km": 35582.396081461164, "timestamp": "2025-12-13T20:38:51.245635+00:00", "meta": {"OBJECT_NAME": "BEIDOU-2 IGSO-2 (C07)", "OBJECT_ID": "2010-068A", "EPOCH": "2025-12-03T17:22:36.027840", "MEAN_MOTION": 1.0028872, "ECCENTRICITY": 0.00492449, "INCLINATION": 47.9042, "RA_OF_ASC_NODE": 274.2614, "ARG_OF_PERICENTER": 216.1411, "MEAN_ANOMALY": 310.24, "EPHEMERIS_TYPE": 0, "CLASSIFICATION_TYPE": "U", "NORAD_CAT_ID": 37256, "ELEMENT_SET_NO": 999, "REV_AT_EPOCH": 5483, "BSTAR": 0, "MEAN_MOTION_DOT": -2.25e-06, "MEAN_MOTION_DDOT": 0}, "tle": {"line1": "1 37256U 10068A   25337.72402810 -.00000225  00000+0  00000+0 0  9990", "line2": "2 37256  47.9042 274.2614 0049244 216.1411 310.2400  1.00288720 54834"}}, "geometry": {"type": "Point", "coordinates": [129.00063157409022, -32.35563764716472]}}, {"type": "Feature", "properties": {"norad_id": 37384, "name": "BEIDOU-2 IGSO-3 (C08)", "group": "gnss", "lat": 61.20795302836329, "lon": 148.0229793870157, "alt_km": 35779.86498196728, "timestamp": "2025-12-13T20:38:51.245649+00:00", "meta": {"OBJECT_NAME": "BEIDOU-2 IGSO-3 (C08)", "OBJECT_ID": "2011-013A", "EPOCH": "2025-12-12T16:08:36.948768", "MEAN_MOTION": 1.0027095, "ECCENTRICITY": 0.00354506, "INCLINATION": 62.1436, "RA_OF_ASC_NODE": 41.9157, "ARG_OF_PERICENTER": 187.5119, "MEAN_ANOMALY": 201.8968, "EPHEMERIS_TYPE": 0, "CLASSIFICATION_TYPE": "U", "NORAD_CAT_ID": 37384, "ELEMENT_SET_NO": 999, "REV_AT_EPOCH": 5379, "BSTAR": 0, "MEAN_MOTION_DOT": -1.97e-06, "MEAN_MOTION_DDOT": 0}, "tle": {"line1": "1 37384U 11013A   25346.67264987 -.00000197  00000+0  00000+0 0  9996", "line2": "2 37384  62.1436  41.9157 0035450 187.5119 201.8968  1.00270950 53797"}}, "geometry": {"type": "Point", "coordinates": [148.0229793870157, 61.20795302836329]}}, {"type": "Feature", "properties": {"norad_id": 37605, "name": "GSAT-8 (GAGAN/PRN 127)", "group": "gnss", "lat": 0.11686553725050815, "lon": 87.57142032481576, "alt_km": 35822.93072969781, "timestamp": "2025-12-13T20:38:51.245662+00:00", "meta": {"OBJECT_NAME": "GSAT-8 (GAGAN/PRN 127)", "OBJECT_ID": "2011-022A", "EPOCH": "2025-12-13T05:09:04.469184", "MEAN_MOTION": 1.00271619, "ECCENTRICITY": 0.00087123, "INCLINATION": 1.6512, "RA_OF_ASC_NODE": 84.1905, "ARG_OF_PERICENTER": 183.798, "MEAN_ANOMALY": 306.5095, "EPHEMERIS_TYPE": 0, "CLASSIFICATION_TYPE": "U", "NORAD_CAT_ID": 37605, "ELEMENT_SET_NO": 999, "REV_AT_EPOCH": 5135, "BSTAR": 0, "MEAN_MOTION_DOT": 9.8e-07, "MEAN_MOTION_DDOT": 0}, "tle": {"line1": "1 37605U 11022A   25347.21463506  .00000098  00000+0  00000+0 0  9990", "line2": "2 37605   1.6512  84.1905 0008712 183.7980 306.5095  1.00271619 51358"}}, "geometry": {"type": "Point", "coordinates": [87.57142032481576, 0.11686553725050815]}}, {"type": "Feature", "properties": {"norad_id": 37763, "name": "BEIDOU-2 IGSO-4 (C09)", "group": "gnss", "lat": -30.60370821245657, "lon": 142.40733783490134, "alt_km": 35788.7348132232, "timestamp": "2025-12-13T20:38:51.245675+00:00", "meta": {"OBJECT_NAME": "BEIDOU-2 IGSO-4 (C09)", "OBJECT_ID": "2011-038A", "EPOCH": "2025-12-10T12:04:03.489024", "MEAN_MOTION": 1.00284678, "ECCENTRICITY": 0.01490344, "INCLINATION": 54.5829, "RA_OF_ASC_NODE": 167.3658, "ARG_OF_PERICENTER": 230.2355, "MEAN_ANOMALY": 317.2212, "EPHEMERIS_TYPE": 0, "CLASSIFICATION_TYPE": "U", "NORAD_CAT_ID": 37763, "ELEMENT_SET_NO": 999, "REV_AT_EPOCH": 5275, "BSTAR": 0, "MEAN_MOTION_DOT": 3.6e-07, "MEAN_MOTION_DDOT": 0}, "tle": {"line1": "1 37763U 11038A   25344.50281816  .00000036  00000+0  00000+0 0  9995", "line2": "2 37763  54.5829 167.3658 0149034 230.2355 317.2212  1.00284678 52751"}}, "geometry": {"type": "Point", "coordinates": [142.40733783490134, -30.60370821245657]}}, {"type": "Feature", "properties": {"norad_id": 37846, "name": "GSAT0101 (GALILEO-PFM)", "group": "gnss", "lat": -39.14386859325072, "lon": -161.34710348967133, "alt_km": 23226.158269060994, "timestamp": "2025-12-13T20:38:51.245688+00:00", "meta": {"OBJECT_NAME": "GSAT0101 (GALILEO-PFM)", "OBJECT_ID": "2011-060A", "EPOCH": "2025-12-12T21:37:17.093856", "MEAN_MOTION": 1.70475751, "ECCENTRICITY": 0.00030259, "INCLINATION": 57.0527, "RA_OF_ASC_NODE": 346.8154, "ARG_OF_PERICENTER": 315.3436, "MEAN_ANOMALY": 44.6506, "EPHEMERIS_TYPE": 0, "CLASSIFICATION_TYPE": "U", "NORAD_CAT_ID": 37846, "ELEMENT_SET_NO": 999, "REV_AT_EPOCH": 8794, "BSTAR": 0, "MEAN_MOTION_DOT": -8.7e-07, "MEAN_MOTION_DDOT": 0}, "tle": {"line1": "1 37846U 11060A   25346.90089229 -.00000087  00000+0  00000+0 0  9999", "line2": "2 37846  57.0527 346.8154 0003025 315.3436  44.6506  1.70475751 87942"}}, "geometry": {"type": "Point", "coordinates": [-161.34710348967133, -39.14386859325072]}}, {"type": "Feature", "properties": {"norad_id": 37847, "name": "GSAT0102 (GALILEO-FM2)", "group": "gnss", "lat": -56.79232894459023, "lon": -95.43313445656054, "alt_km": 23215.94079930099, "timestamp": "2025-12-13T20:38:51.245699+00:00", "meta": {"OBJECT_NAME": "GSAT0102 (GALILEO-FM2)", "OBJECT_ID": "2011-060B", "EPOCH": "2025-12-12T05:47:25.345248", "MEAN_MOTION": 1.70475905, "ECCENTRICITY": 0.00049802, "INCLINATION": 57.0536, "RA_OF_ASC_NODE": 346.8337, "ARG_OF_PERICENTER": 309.4177, "MEAN_ANOMALY": 51.2149, "EPHEMERIS_TYPE": 0, "CLASSIFICATION_TYPE": "U", "NORAD_CAT_ID": 37847, "ELEMENT_SET_NO": 999, "REV_AT_EPOCH": 8794, "BSTAR": 0, "MEAN_MOTION_DOT": -8.7e-07, "MEAN_MOTION_DDOT": 0}, "tle": {"line1": "1 37847U 11060B   25346.24126557 -.00000087  00000+0  00000+0 0  9993", "line2": "2 37847  57.0536 346.8337 0004980 309.4177  51.2149  1.70475905 87941"}}, "geometry": {"type": "Point", "coordinates": [-95.43313445656054, -56.79232894459023]}}]}